{
  "type": "FeatureCollection",
  "features": [
    {
      "type": "Feature",
      "properties": {
        "norad_id": 29268,
        "name": "ARIRANG-2 (KOMPSAT-2)",
        "group": "resource",
        "lat": 54.12560366654989,
        "lon": 11.164249189250755,
        "alt_km": 682.7012211894207,
        "timestamp": "2025-12-17T23:38:06.519624+00:00",
        "meta_object_name": "ARIRANG-2 (KOMPSAT-2)",
        "meta_object_id": "2006-031A",
        "meta_epoch": "2025-12-17T15:10:53.438880",
        "meta_mean_motion": 14.64498069,
        "meta_eccentricity": 0.0013301,
        "meta_inclination": 97.8257,
        "meta_ra_of_asc_node": 179.8666,
        "meta_arg_of_pericenter": 292.4568,
        "meta_mean_anomaly": 136.7055,
        "meta_ephemeris_type": 0,
        "meta_classification_type": "U",
        "meta_norad_cat_id": 29268,
        "meta_element_set_no": 999,
        "meta_rev_at_epoch": 3490,
        "meta_bstar": 5.7983422e-05,
        "meta_mean_motion_dot": 2.62e-06,
        "meta_mean_motion_ddot": 0,
        "tle_line1": "1 29268U 06031A   25351.63256295  .00000262  00000+0  57983-4 0  9996",
        "tle_line2": "2 29268  97.8257 179.8666 0013301 292.4568 136.7055 14.64498069 34908"
      },
      "geometry": {
        "type": "Point",
        "coordinates": [
          11.164249189250755,
          54.12560366654989
        ]
      }
    },
    {
      "type": "Feature",
      "properties": {
        "norad_id": 29709,
        "name": "LAPAN-TUBSAT",
        "group": "resource",
        "lat": 77.69064269697994,
        "lon": -156.84942647405978,
        "alt_km": 596.988122046243,
        "timestamp": "2025-12-17T23:38:06.519635+00:00",
        "meta_object_name": "LAPAN-TUBSAT",
        "meta_object_id": "2007-001A",
        "meta_epoch": "2025-12-17T15:06:32.600736",
        "meta_mean_motion": 14.85678751,
        "meta_eccentricity": 0.001357,
        "meta_inclination": 98.1255,
        "meta_ra_of_asc_node": 341.8869,
        "meta_arg_of_pericenter": 59.5185,
        "meta_mean_anomaly": 300.7367,
        "meta_ephemeris_type": 0,
        "meta_classification_type": "U",
        "meta_norad_cat_id": 29709,
        "meta_element_set_no": 999,
        "meta_rev_at_epoch": 2419,
        "meta_bstar": 5.5401477e-05,
        "meta_mean_motion_dot": 4.23e-06,
        "meta_mean_motion_ddot": 0,
        "tle_line1": "1 29709U 07001A   25351.62954399  .00000423  00000+0  55401-4 0  9995",
        "tle_line2": "2 29709  98.1255 341.8869 0013570  59.5185 300.7367 14.85678751 24191"
      },
      "geometry": {
        "type": "Point",
        "coordinates": [
          -156.84942647405978,
          77.69064269697994
        ]
      }
    },
    {
      "type": "Feature",
      "properties": {
        "norad_id": 31113,
        "name": "HAIYANG-1B",
        "group": "resource",
        "lat": 32.39551352164382,
        "lon": -29.288974131622776,
        "alt_km": 776.6361156692337,
        "timestamp": "2025-12-17T23:38:06.519645+00:00",
        "meta_object_name": "HAIYANG-1B",
        "meta_object_id": "2007-010A",
        "meta_epoch": "2025-12-17T13:24:50.203296",
        "meta_mean_motion": 14.30966735,
        "meta_eccentricity": 0.00140383,
        "meta_inclination": 98.3317,
        "meta_ra_of_asc_node": 335.638,
        "meta_arg_of_pericenter": 24.3905,
        "meta_mean_anomaly": 335.7941,
        "meta_ephemeris_type": 0,
        "meta_classification_type": "U",
        "meta_norad_cat_id": 31113,
        "meta_element_set_no": 999,
        "meta_rev_at_epoch": 97465,
        "meta_bstar": 5.5191365e-05,
        "meta_mean_motion_dot": 1.04e-06,
        "meta_mean_motion_ddot": 0,
        "tle_line1": "1 31113U 07010A   25351.55891439  .00000104  00000+0  55191-4 0  9996",
        "tle_line2": "2 31113  98.3317 335.6380 0014038  24.3905 335.7941 14.30966735974656"
      },
      "geometry": {
        "type": "Point",
        "coordinates": [
          -29.288974131622776,
          32.39551352164382
        ]
      }
    },
    {
      "type": "Feature",
      "properties": {
        "norad_id": 31598,
        "name": "COSMO-SKYMED 1",
        "group": "resource",
        "lat": -64.62159259747156,
        "lon": -19.565522670579142,
        "alt_km": 588.1045626454124,
        "timestamp": "2025-12-17T23:38:06.519655+00:00",
        "meta_object_name": "COSMO-SKYMED 1",
        "meta_object_id": "2007-023A",
        "meta_epoch": "2025-12-17T14:30:44.820288",
        "meta_mean_motion": 14.95803152,
        "meta_eccentricity": 0.00015453,
        "meta_inclination": 97.8835,
        "meta_ra_of_asc_node": 177.0355,
        "meta_arg_of_pericenter": 87.7743,
        "meta_mean_anomaly": 272.3655,
        "meta_ephemeris_type": 0,
        "meta_classification_type": "U",
        "meta_norad_cat_id": 31598,
        "meta_element_set_no": 999,
        "meta_rev_at_epoch": 263,
        "meta_bstar": 0.00032318778,
        "meta_mean_motion_dot": 3.548e-05,
        "meta_mean_motion_ddot": 0,
        "tle_line1": "1 31598U 07023A   25351.60468542  .00003548  00000+0  32319-3 0  9999",
        "tle_line2": "2 31598  97.8835 177.0355 0001545  87.7743 272.3655 14.95803152  2636"
      },
      "geometry": {
        "type": "Point",
        "coordinates": [
          -19.565522670579142,
          -64.62159259747156
        ]
      }
    },
    {
      "type": "Feature",
      "properties": {
        "norad_id": 31698,
        "name": "TERRASAR-X",
        "group": "resource",
        "lat": -18.0514177303064,
        "lon": -0.2681215299217627,
        "alt_km": 513.9008439313775,
        "timestamp": "2025-12-17T23:38:06.519666+00:00",
        "meta_object_name": "TERRASAR-X",
        "meta_object_id": "2007-026A",
        "meta_epoch": "2025-12-17T14:13:48.329472",
        "meta_mean_motion": 15.19149756,
        "meta_eccentricity": 0.00018426,
        "meta_inclination": 97.4455,
        "meta_ra_of_asc_node": 356.9029,
        "meta_arg_of_pericenter": 91.3746,
        "meta_mean_anomaly": 268.77,
        "meta_ephemeris_type": 0,
        "meta_classification_type": "U",
        "meta_norad_cat_id": 31698,
        "meta_element_set_no": 999,
        "meta_rev_at_epoch": 2565,
        "meta_bstar": 4.5889707e-05,
        "meta_mean_motion_dot": 8.97e-06,
        "meta_mean_motion_ddot": 0,
        "tle_line1": "1 31698U 07026A   25351.59292048  .00000897  00000+0  45890-4 0  9990",
        "tle_line2": "2 31698  97.4455 356.9029 0001842  91.3746 268.7700 15.19149756 25658"
      },
      "geometry": {
        "type": "Point",
        "coordinates": [
          -0.2681215299217627,
          -18.0514177303064
        ]
      }
    },
    {
      "type": "Feature",
      "properties": {
        "norad_id": 32060,
        "name": "WORLDVIEW-1 (WV-1)",
        "group": "resource",
        "lat": 82.46743905891087,
        "lon": 30.662507795600426,
        "alt_km": 483.4508522312253,
        "timestamp": "2025-12-17T23:38:06.519676+00:00",
        "meta_object_name": "WORLDVIEW-1 (WV-1)",
        "meta_object_id": "2007-041A",
        "meta_epoch": "2025-12-17T07:29:53.430144",
        "meta_mean_motion": 15.2476548,
        "meta_eccentricity": 8.726e-05,
        "meta_inclination": 97.3838,
        "meta_ra_of_asc_node": 108.729,
        "meta_arg_of_pericenter": 115.5269,
        "meta_mean_anomaly": 244.6059,
        "meta_ephemeris_type": 0,
        "meta_classification_type": "U",
        "meta_norad_cat_id": 32060,
        "meta_element_set_no": 999,
        "meta_rev_at_epoch": 1517,
        "meta_bstar": 0.00027818133,
        "meta_mean_motion_dot": 6.823e-05,
        "meta_mean_motion_ddot": 0,
        "tle_line1": "1 32060U 07041A   25351.31242396  .00006823  00000+0  27818-3 0  9996",
        "tle_line2": "2 32060  97.3838 108.7290 0000872 115.5269 244.6059 15.24765480 15170"
      },
      "geometry": {
        "type": "Point",
        "coordinates": [
          30.662507795600426,
          82.46743905891087
        ]
      }
    },
    {
      "type": "Feature",
      "properties": {
        "norad_id": 32289,
        "name": "YAOGAN-3",
        "group": "resource",
        "lat": -16.358864309185737,
        "lon": 20.880182655438706,
        "alt_km": 603.1440470154557,
        "timestamp": "2025-12-17T23:38:06.519687+00:00",
        "meta_object_name": "YAOGAN-3",
        "meta_object_id": "2007-055A",
        "meta_epoch": "2025-12-17T15:38:59.400096",
        "meta_mean_motion": 14.89884656,
        "meta_eccentricity": 0.0001342,
        "meta_inclination": 97.8368,
        "meta_ra_of_asc_node": 18.2334,
        "meta_arg_of_pericenter": 72.1739,
        "meta_mean_anomaly": 287.9625,
        "meta_ephemeris_type": 0,
        "meta_classification_type": "U",
        "meta_norad_cat_id": 32289,
        "meta_element_set_no": 999,
        "meta_rev_at_epoch": 97882,
        "meta_bstar": 0.00022826508,
        "meta_mean_motion_dot": 2.139e-05,
        "meta_mean_motion_ddot": 0,
        "tle_line1": "1 32289U 07055A   25351.65207639  .00002139  00000+0  22827-3 0  9993",
        "tle_line2": "2 32289  97.8368  18.2334 0001342  72.1739 287.9625 14.89884656978829"
      },
      "geometry": {
        "type": "Point",
        "coordinates": [
          20.880182655438706,
          -16.358864309185737
        ]
      }
    }
  ]
}